[{"OBJECT_NAME":"STARLINK-31521","OBJECT_ID":"2024-036T","EPOCH":"2026-03-09T06:15:05.633568","MEAN_MOTION":15.30193288,"ECCENTRICITY":0.00011502,"INCLINATION":53.1608,"RA_OF_ASC_NODE":80.3916,"ARG_OF_PERICENTER":77.6173,"MEAN_ANOMALY":282.4956,"EPHEMERIS_TYPE":0,"CLASSIFICATION_TYPE":"U","NORAD_CAT_ID":59015,"ELEMENT_SET_NO":999,"REV_AT_EPOCH":11525,"BSTAR":-5.110409e-6,"MEAN_MOTION_DOT":-5.1e-6,"MEAN_MOTION_DDOT":0},{"OBJECT_NAME":"CERISE","OBJECT_ID":"1995-033B","EPOCH":"2026-03-09T23:11:27.589056","MEAN_MOTION":15.32047731,"ECCENTRICITY":0.00057118,"INCLINATION":98.325,"RA_OF_ASC_NODE":273.5192,"ARG_OF_PERICENTER":211.8754,"MEAN_ANOMALY":148.214,"EPHEMERIS_TYPE":0,"CLASSIFICATION_TYPE":"U","NORAD_CAT_ID":23606,"ELEMENT_SET_NO":999,"REV_AT_EPOCH":66468,"BSTAR":0.00062940675,"MEAN_MOTION_DOT":0.00019422,"MEAN_MOTION_DDOT":0}]
